{
  "type": "FeatureCollection",
  "features": [
    {
      "type": "Feature",
      "properties": {
        "norad_id": 66597,
        "name": "STARLINK-35820",
        "group": "last-30-days",
        "lat": 41.521721370873514,
        "lon": -41.868307899398324,
        "alt_km": 397.82239999997637,
        "timestamp": "2025-12-09T18:55:16.023036+00:00",
        "meta_object_name": "STARLINK-35820",
        "meta_object_id": "2025-270K",
        "meta_epoch": "2025-12-09T14:00:01.999872",
        "meta_mean_motion": 15.55507428,
        "meta_eccentricity": 0.00017963,
        "meta_inclination": 42.9995,
        "meta_ra_of_asc_node": 211.1766,
        "meta_arg_of_pericenter": 261.4693,
        "meta_mean_anomaly": 132.8732,
        "meta_ephemeris_type": 0,
        "meta_classification_type": "U",
        "meta_norad_cat_id": 66597,
        "meta_element_set_no": 999,
        "meta_rev_at_epoch": 400,
        "meta_bstar": -0.031877727,
        "meta_mean_motion_dot": -0.02001123,
        "meta_mean_motion_ddot": 0,
        "tle_line1": "1 66597U 25270K   25343.58335648 -.02001123  00000+0 -31878-1 0  9996",
        "tle_line2": "2 66597  42.9995 211.1766 0001796 261.4693 132.8732 15.55507428  4003"
      },
      "geometry": {
        "type": "Point",
        "coordinates": [
          -41.868307899398324,
          41.521721370873514
        ]
      }
    },
    {
      "type": "Feature",
      "properties": {
        "norad_id": 66598,
        "name": "STARLINK-35981",
        "group": "last-30-days",
        "lat": 41.087441549836754,
        "lon": -39.38743077965736,
        "alt_km": 397.80953150041205,
        "timestamp": "2025-12-09T18:55:16.023047+00:00",
        "meta_object_name": "STARLINK-35981",
        "meta_object_id": "2025-270L",
        "meta_epoch": "2025-12-09T14:00:01.999872",
        "meta_mean_motion": 15.5550769,
        "meta_eccentricity": 0.00017967,
        "meta_inclination": 42.9995,
        "meta_ra_of_asc_node": 211.1716,
        "meta_arg_of_pericenter": 255.5753,
        "meta_mean_anomaly": 140.6848,
        "meta_ephemeris_type": 0,
        "meta_classification_type": "U",
        "meta_norad_cat_id": 66598,
        "meta_element_set_no": 999,
        "meta_rev_at_epoch": 373,
        "meta_bstar": -0.031914107,
        "meta_mean_motion_dot": -0.02003186,
        "meta_mean_motion_ddot": 0,
        "tle_line1": "1 66598U 25270L   25343.58335648 -.02003186  00000+0 -31914-1 0  9999",
        "tle_line2": "2 66598  42.9995 211.1716 0001796 255.5753 140.6848 15.55507690  3735"
      },
      "geometry": {
        "type": "Point",
        "coordinates": [
          -39.38743077965736,
          41.087441549836754
        ]
      }
    },
    {
      "type": "Feature",
      "properties": {
        "norad_id": 66599,
        "name": "STARLINK-35930",
        "group": "last-30-days",
        "lat": 40.59996940241456,
        "lon": -36.938357833300195,
        "alt_km": 397.868032069895,
        "timestamp": "2025-12-09T18:55:16.023057+00:00",
        "meta_object_name": "STARLINK-35930",
        "meta_object_id": "2025-270M",
        "meta_epoch": "2025-12-09T14:00:01.999872",
        "meta_mean_motion": 15.55502706,
        "meta_eccentricity": 0.00017611,
        "meta_inclination": 42.9994,
        "meta_ra_of_asc_node": 211.1675,
        "meta_arg_of_pericenter": 257.4702,
        "meta_mean_anomaly": 140.708,
        "meta_ephemeris_type": 0,
        "meta_classification_type": "U",
        "meta_norad_cat_id": 66599,
        "meta_element_set_no": 999,
        "meta_rev_at_epoch": 389,
        "meta_bstar": -0.031778606,
        "meta_mean_motion_dot": -0.01995213,
        "meta_mean_motion_ddot": 0,
        "tle_line1": "1 66599U 25270M   25343.58335648 -.01995213  00000+0 -31779-1 0  9999",
        "tle_line2": "2 66599  42.9994 211.1675 0001761 257.4702 140.7080 15.55502706  3895"
      },
      "geometry": {
        "type": "Point",
        "coordinates": [
          -36.938357833300195,
          40.59996940241456
        ]
      }
    },
    {
      "type": "Feature",
      "properties": {
        "norad_id": 66600,
        "name": "STARLINK-35980",
        "group": "last-30-days",
        "lat": 40.06056118899006,
        "lon": -34.522708789397136,
        "alt_km": 397.97850418306734,
        "timestamp": "2025-12-09T18:55:16.023067+00:00",
        "meta_object_name": "STARLINK-35980",
        "meta_object_id": "2025-270N",
        "meta_epoch": "2025-12-09T14:00:01.999872",
        "meta_mean_motion": 15.55505089,
        "meta_eccentricity": 0.00017319,
        "meta_inclination": 42.9996,
        "meta_ra_of_asc_node": 211.1626,
        "meta_arg_of_pericenter": 263.752,
        "meta_mean_anomaly": 136.3429,
        "meta_ephemeris_type": 0,
        "meta_classification_type": "U",
        "meta_norad_cat_id": 66600,
        "meta_element_set_no": 999,
        "meta_rev_at_epoch": 379,
        "meta_bstar": -0.031811458,
        "meta_mean_motion_dot": -0.019972,
        "meta_mean_motion_ddot": 0,
        "tle_line1": "1 66600U 25270N   25343.58335648 -.01997200  00000+0 -31811-1 0  9997",
        "tle_line2": "2 66600  42.9996 211.1626 0001731 263.7520 136.3429 15.55505089  3795"
      },
      "geometry": {
        "type": "Point",
        "coordinates": [
          -34.522708789397136,
          40.06056118899006
        ]
      }
    },
    {
      "type": "Feature",
      "properties": {
        "norad_id": 66601,
        "name": "STARLINK-35978",
        "group": "last-30-days",
        "lat": 39.47295842882067,
        "lon": -32.152917456515745,
        "alt_km": 398.00360626942256,
        "timestamp": "2025-12-09T18:55:16.023077+00:00",
        "meta_object_name": "STARLINK-35978",
        "meta_object_id": "2025-270P",
        "meta_epoch": "2025-12-09T14:00:01.999872",
        "meta_mean_motion": 15.55503523,
        "meta_eccentricity": 0.00017039,
        "meta_inclination": 42.9996,
        "meta_ra_of_asc_node": 211.1576,
        "meta_arg_of_pericenter": 260.8724,
        "meta_mean_anomaly": 141.1398,
        "meta_ephemeris_type": 0,
        "meta_classification_type": "U",
        "meta_norad_cat_id": 66601,
        "meta_element_set_no": 999,
        "meta_rev_at_epoch": 373,
        "meta_bstar": -0.031777202,
        "meta_mean_motion_dot": -0.01995152,
        "meta_mean_motion_ddot": 0,
        "tle_line1": "1 66601U 25270P   25343.58335648 -.01995152  00000+0 -31777-1 0  9993",
        "tle_line2": "2 66601  42.9996 211.1576 0001703 260.8724 141.1398 15.55503523  3737"
      },
      "geometry": {
        "type": "Point",
        "coordinates": [
          -32.152917456515745,
          39.47295842882067
        ]
      }
    },
    {
      "type": "Feature",
      "properties": {
        "norad_id": 66602,
        "name": "STARLINK-36050",
        "group": "last-30-days",
        "lat": 38.83836851470513,
        "lon": -29.82574195051418,
        "alt_km": 398.09503350086925,
        "timestamp": "2025-12-09T18:55:16.023087+00:00",
        "meta_object_name": "STARLINK-36050",
        "meta_object_id": "2025-270Q",
        "meta_epoch": "2025-12-09T14:00:01.999872",
        "meta_mean_motion": 15.555045,
        "meta_eccentricity": 0.00017647,
        "meta_inclination": 42.9997,
        "meta_ra_of_asc_node": 211.1527,
        "meta_arg_of_pericenter": 259.291,
        "meta_mean_anomaly": 144.636,
        "meta_ephemeris_type": 0,
        "meta_classification_type": "U",
        "meta_norad_cat_id": 66602,
        "meta_element_set_no": 999,
        "meta_rev_at_epoch": 379,
        "meta_bstar": -0.031786691,
        "meta_mean_motion_dot": -0.01995789,
        "meta_mean_motion_ddot": 0,
        "tle_line1": "1 66602U 25270Q   25343.58335648 -.01995789  00000+0 -31787-1 0  9991",
        "tle_line2": "2 66602  42.9997 211.1527 0001764 259.2910 144.6360 15.55504500  3790"
      },
      "geometry": {
        "type": "Point",
        "coordinates": [
          -29.82574195051418,
          38.83836851470513
        ]
      }
    },
    {
      "type": "Feature",
      "properties": {
        "norad_id": 66603,
        "name": "STARLINK-36048",
        "group": "last-30-days",
        "lat": 38.15573302105618,
        "lon": -27.53387051590868,
        "alt_km": 398.2239711419661,
        "timestamp": "2025-12-09T18:55:16.023099+00:00",
        "meta_object_name": "STARLINK-36048",
        "meta_object_id": "2025-270R",
        "meta_epoch": "2025-12-09T14:00:01.999872",
        "meta_mean_motion": 15.55505712,
        "meta_eccentricity": 0.0001814,
        "meta_inclination": 42.9995,
        "meta_ra_of_asc_node": 211.148,
        "meta_arg_of_pericenter": 260.1506,
        "meta_mean_anomaly": 145.6974,
        "meta_ephemeris_type": 0,
        "meta_classification_type": "U",
        "meta_norad_cat_id": 66603,
        "meta_element_set_no": 999,
        "meta_rev_at_epoch": 379,
        "meta_bstar": -0.031899239,
        "meta_mean_motion_dot": -0.02002229,
        "meta_mean_motion_ddot": 0,
        "tle_line1": "1 66603U 25270R   25343.58335648 -.02002229  00000+0 -31899-1 0  9995",
        "tle_line2": "2 66603  42.9995 211.1480 0001814 260.1506 145.6974 15.55505712  3793"
      },
      "geometry": {
        "type": "Point",
        "coordinates": [
          -27.53387051590868,
          38.15573302105618
        ]
      }
    }
  ]
}